{
    "links": {
        "self": "http://www.neowsapp.com/rest/v1/neo/3781722?api_key=iIulBulltgU6a56xZRHN4H3l9WmuAYTsLGpBGhQ2"
    },
    "id": "3781722",
    "neo_reference_id": "3781722",
    "name": "(2017 SV11)",
    "designation": "2017 SV11",
    "nasa_jpl_url": "http://ssd.jpl.nasa.gov/sbdb.cgi?sstr=3781722",
    "absolute_magnitude_h": 24.0,
    "estimated_diameter": {
        "kilometers": {
            "estimated_diameter_min": 0.0421264611,
            "estimated_diameter_max": 0.0941976306
        },
        "meters": {
            "estimated_diameter_min": 42.1264610556,
            "estimated_diameter_max": 94.1976305719
        },
        "miles": {
            "estimated_diameter_min": 0.0261761612,
            "estimated_diameter_max": 0.0585316759
        },
        "feet": {
            "estimated_diameter_min": 138.2101784897,
            "estimated_diameter_max": 309.0473542854
        }
    },
    "is_potentially_hazardous_asteroid": false,
    "close_approach_data": [
        {
            "close_approach_date": "2017-10-03",
            "close_approach_date_full": "2017-Oct-03 16:05",
            "epoch_date_close_approach": 1507046700000,
            "relative_velocity": {
                "kilometers_per_second": "6.3533791487",
                "kilometers_per_hour": "22872.1649352134",
                "miles_per_hour": "14211.8738176608"
            },
            "miss_distance": {
                "astronomical": "0.121103487",
                "lunar": "47.109256443",
                "kilometers": "18116823.70477269",
                "miles": "11257272.243495522"
            },
            "orbiting_body": "Earth"
        },
        {
            "close_approach_date": "2146-07-09",
            "close_approach_date_full": "2146-Jul-09 09:22",
            "epoch_date_close_approach": 5570414520000,
            "relative_velocity": {
                "kilometers_per_second": "11.2645202175",
                "kilometers_per_hour": "40552.2727828866",
                "miles_per_hour": "25197.6052744553"
            },
            "miss_distance": {
                "astronomical": "0.0354798476",
                "lunar": "13.8016607164",
                "kilometers": "5307709.628884612",
                "miles": "3298057.8304151656"
            },
            "orbiting_body": "Mars"
        },
        {
            "close_approach_date": "2146-09-04",
            "close_approach_date_full": "2146-Sep-04 02:29",
            "epoch_date_close_approach": 5575314540000,
            "relative_velocity": {
                "kilometers_per_second": "17.8537026433",
                "kilometers_per_hour": "64273.3295157554",
                "miles_per_hour": "39936.9474427204"
            },
            "miss_distance": {
                "astronomical": "0.4760310389",
                "lunar": "185.1760741321",
                "kilometers": "71213229.473327143",
                "miles": "44249848.9019668534"
            },
            "orbiting_body": "Earth"
        }
    ],
    "orbital_data": {
        "orbit_id": "4",
        "orbit_determination_date": "2017-10-11 06:31:11",
        "first_observation_date": "2017-09-21",
        "last_observation_date": "2017-10-10",
        "data_arc_in_days": 19,
        "observations_used": 48,
        "orbit_uncertainty": "7",
        "minimum_orbit_intersection": ".12238",
        "jupiter_tisserand_invariant": "3.355",
        "epoch_osculation": "2459000.5",
        "eccentricity": ".5286055417451533",
        "semi_major_axis": "2.339095850119244",
        "inclination": "6.528107338690182",
        "ascending_node_longitude": "343.6369456561046",
        "orbital_period": "1306.683642625251",
        "perihelion_distance": "1.102636821073121",
        "perihelion_argument": "37.81395526259905",
        "aphelion_distance": "3.575554879165367",
        "perihelion_time": "2459346.287660210588",
        "mean_anomaly": "264.7332088540479",
        "mean_motion": ".2755066247532769",
        "equinox": "J2000",
        "orbit_class": {
            "orbit_class_type": "AMO",
            "orbit_class_description": "Near-Earth asteroid orbits similar to that of 1221 Amor",
            "orbit_class_range": "1.017 AU < q (perihelion) < 1.3 AU"
        }
    },
    "is_sentry_object": false
}